OBJECT_NAME,OBJECT_ID,EPOCH,MEAN_MOTION,ECCENTRICITY,INCLINATION,RA_OF_ASC_NODE,ARG_OF_PERICENTER,MEAN_ANOMALY,EPHEMERIS_TYPE,CLASSIFICATION_TYPE,NORAD_CAT_ID,ELEMENT_SET_NO,REV_AT_EPOCH,BSTAR,MEAN_MOTION_DOT,MEAN_MOTION_DDOT
GAOFEN-11 01,2018-063A,2026-06-14T06:40:19.860096,15.55213542,.00034055,97.1299,232.1660,11.0806,349.0523,0,U,43585,999,43989,.24906039E-3,.16745E-3,0
ICESAT-2,2018-070A,2026-06-14T06:34:29.656704,15.28237867,.00058858,92.0076,290.1918,112.8260,247.3612,0,U,43613,999,43201,.35577325E-3,.9791E-4,0
HYSIS,2018-096A,2026-06-14T07:14:23.492256,14.78692284,.00019046,97.9847,232.0725,109.4175,250.7242,0,U,43719,999,40699,.19326656E-3,.1365E-4,0
KAZSTSAT,2018-099AB,2026-06-14T02:17:17.547936,14.99857659,.00083336,97.4265,197.1643,77.8694,282.3463,0,U,43783,999,41084,.11677537E-3,.1392E-4,0
SAUDISAT 5A,2018-102A,2026-06-14T06:48:09.889920,15.28021124,.00108401,97.3073,226.9200,137.9855,222.2218,0,U,43831,999,41523,.19964137E-3,.5392E-4,0
SAUDISAT 5B,2018-102C,2026-06-14T05:41:43.197792,15.28278699,.00114905,97.3181,229.9391,140.5297,219.6782,0,U,43833,999,41534,.18511525E-3,.5035E-4,0
GAOFEN-10R,2019-066A,2026-06-14T07:40:55.763040,14.83055154,.00064982,98.0497,118.8785,135.4033,224.7704,0,U,44622,999,36195,.13651519E-3,.1056E-4,0
CARTOSAT-3,2019-081A,2026-06-14T06:13:28.540704,15.19262895,.00129328,97.4310,227.1730,158.2078,201.9710,0,U,44804,999,36302,.20718803E-3,.4309E-4,0
GAOFEN-12 01,2019-082A,2026-06-14T07:24:23.981760,14.80456476,.0002358,97.8100,171.7640,73.9547,286.1925,0,U,44819,999,35366,.52402094E-4,.35E-5,0
CSG-1,2019-092A,2026-06-14T06:48:06.715584,14.82151001,.00014641,97.8888,348.9281,88.9965,271.1416,0,U,44873,999,35104,.561187E-4,.394E-5,0
NEMO-HD,2020-061F,2026-06-14T05:08:45.189024,15.44540248,.00024111,97.1926,227.1971,84.6953,275.4571,0,U,46277,999,32152,.22572412E-3,.10393E-3,0
SENTINEL-6A,2020-086A,2026-06-14T06:35:38.393952,12.80929974,.00079516,66.0392,141.1015,270.2649,89.7455,0,U,46984,999,25995,.5112436E-5,-.6E-6,0
CAS500-1,2021-022A,2026-06-14T07:09:43.519104,15.20179301,.00039616,97.3912,60.6107,316.4768,43.6154,0,U,47932,999,29032,.27666533E-3,.5924E-4,0
GAOFEN-12 02,2021-026A,2026-06-14T06:02:32.578944,14.80294081,.00035175,97.9928,163.4443,234.2481,125.8405,0,U,48079,999,28132,.49886061E-4,.327E-5,0
PLEIADES NEO 3,2021-034A,2026-06-14T06:45:40.373856,14.81666658,.00013695,97.8935,240.0900,86.1731,273.9638,0,U,48268,999,27722,.43248221E-4,.288E-5,0
PLEIADES NEO 4,2021-073E,2026-06-14T05:57:02.417760,14.81686216,.00013975,97.8941,240.0526,87.7734,272.3638,0,U,49070,999,26093,.20075494E-3,.1529E-4,0
LANDSAT 9,2021-088A,2026-06-14T04:12:02.713824,14.57095086,.00014275,98.2281,235.3889,85.5211,274.6150,0,U,49260,999,25056,.74138068E-4,.288E-5,0
CSG-2,2022-008A,2026-06-14T07:36:42.267168,14.82152345,.0001422,97.8881,348.9564,84.2782,275.8593,0,U,51444,999,23616,-.11911115E-4,-.147E-5,0
GAOFEN-12 03,2022-069A,2026-06-14T06:44:51.681408,14.80030071,.0001928,97.8291,53.2252,104.5058,255.6368,0,U,52912,999,21418,.88024666E-4,.616E-5,0
SWOT,2022-173A,2026-06-14T04:50:12.743232,14.00169286,.00002465,77.6108,39.3407,95.2262,264.8918,0,U,54754,999,17873,.49882896E-4,.71E-6,0
GAOFEN-12 04,2023-123A,2026-06-14T07:09:25.875360,14.80223754,.00017899,97.9127,83.3574,84.3862,275.7554,0,U,57654,999,15220,.1249566E-3,.898E-5,0
PARS 1,2024-039Q,2026-06-14T06:31:26.854176,15.45670103,.00113448,97.4815,146.0997,120.4915,239.7456,0,U,59065,999,12819,.217161E-3,.10407E-3,0
RESURS-P 4,2024-061A,2026-06-14T07:46:47.315136,15.32116471,.00019516,97.2753,113.2728,129.6396,230.5019,0,U,59371,999,12332,.9457384E-4,.2856E-4,0
LEGION 1,2024-081A,2026-06-14T06:11:37.406976,15.16648942,.00098148,97.5022,243.1460,27.7148,332.4606,0,U,59625,999,11709,.17702492E-3,.3399E-4,0
LEGION 2,2024-081B,2026-06-14T05:19:43.791168,15.16628224,.0011052,97.5023,243.2079,354.5365,5.5746,0,U,59626,999,11709,.2044314E-3,.3935E-4,0
ALOS-4 (DAICHI-4),2024-123A,2026-06-14T06:00:26.118720,14.79470806,.00015815,97.9244,262.4652,97.9334,262.2057,0,U,60182,999,10544,.18714283E-3,.1346E-4,0
LEGION 3,2024-146A,2026-06-14T02:23:47.531616,15.16018448,.00072911,45.0025,47.1126,152.0320,208.0952,0,U,60452,999,10155,.1973046E-3,.3595E-4,0
LEGION 4,2024-146B,2026-06-14T05:37:58.929312,15.16009855,.00140092,44.9996,138.2995,292.9386,67.0014,0,U,60453,999,10042,.18177691E-3,.3294E-4,0
SENTINEL-2C,2024-157A,2026-06-14T03:58:23.690208,14.30817015,.0001068,98.5692,239.9902,80.2378,279.8926,0,U,60989,999,9255,.50694698E-4,.89E-6,0
IONOSFERA-M 1,2024-199A,2026-06-14T05:45:44.849952,14.22753775,.00018704,98.7177,38.4434,114.2081,245.9293,0,U,61735,999,12728,.44619513E-4,.56E-6,0
