GAOFEN-11 01            
1 43585U 18063A   26165.27800764  .00016745  00000+0  24906-3 0  9993
2 43585  97.1299 232.1660 0003405  11.0806 349.0523 15.55213542439894
ICESAT-2                
1 43613U 18070A   26165.27395436  .00009791  00000+0  35577-3 0  9997
2 43613  92.0076 290.1918 0005885 112.8260 247.3612 15.28237867432013
HYSIS                   
1 43719U 18096A   26165.30166079  .00001365  00000+0  19327-3 0  9999
2 43719  97.9847 232.0725 0001904 109.4175 250.7242 14.78692284406993
KAZSTSAT                
1 43783U 18099AB  26165.09534199  .00001392  00000+0  11678-3 0  9992
2 43783  97.4265 197.1643 0008333  77.8694 282.3463 14.99857659410847
SAUDISAT 5A             
1 43831U 18102A   26165.28344780  .00005392  00000+0  19964-3 0  9997
2 43831  97.3073 226.9200 0010840 137.9855 222.2218 15.28021124415232
SAUDISAT 5B             
1 43833U 18102C   26165.23730553  .00005035  00000+0  18512-3 0  9993
2 43833  97.3181 229.9391 0011490 140.5297 219.6782 15.28278699415349
GAOFEN-10R              
1 44622U 19066A   26165.32008985  .00001056  00000+0  13652-3 0  9996
2 44622  98.0497 118.8785 0006498 135.4033 224.7704 14.83055154361957
CARTOSAT-3              
1 44804U 19081A   26165.25935811  .00004309  00000+0  20719-3 0  9990
2 44804  97.4310 227.1730 0012932 158.2078 201.9710 15.19262895363028
GAOFEN-12 01            
1 44819U 19082A   26165.30861090  .00000350  00000+0  52402-4 0  9997
2 44819  97.8100 171.7640 0002358  73.9547 286.1925 14.80456476353663
CSG-1                   
1 44873U 19092A   26165.28341106  .00000394  00000+0  56119-4 0  9993
2 44873  97.8888 348.9281 0001464  88.9965 271.1416 14.82151001351049
NEMO-HD                 
1 46277U 20061F   26165.21441191  .00010393  00000+0  22572-3 0  9994
2 46277  97.1926 227.1971 0002411  84.6953 275.4571 15.44540248321525
SENTINEL-6A             
1 46984U 20086A   26165.27474993 -.00000060  00000+0  51124-5 0  9996
2 46984  66.0392 141.1015 0007951 270.2649  89.7455 12.80929974259953
CAS500-1                
1 47932U 21022A   26165.29842036  .00005924  00000+0  27667-3 0  9996
2 47932  97.3912  60.6107 0003961 316.4768  43.6154 15.20179301290320
GAOFEN-12 02            
1 48079U 21026A   26165.25176596  .00000327  00000+0  49886-4 0  9990
2 48079  97.9928 163.4443 0003517 234.2481 125.8405 14.80294081281327
PLEIADES NEO 3          
1 48268U 21034A   26165.28171729  .00000288  00000+0  43248-4 0  9997
2 48268  97.8935 240.0900 0001369  86.1731 273.9638 14.81666658277220
PLEIADES NEO 4          
1 49070U 21073E   26165.24794465  .00001529  00000+0  20075-3 0  9997
2 49070  97.8941 240.0526 0001397  87.7734 272.3638 14.81686216260939
LANDSAT 9               
1 49260U 21088A   26165.17503141  .00000288  00000+0  74138-4 0  9996
2 49260  98.2281 235.3889 0001427  85.5211 274.6150 14.57095086250565
CSG-2                   
1 51444U 22008A   26165.31715587 -.00000147  00000+0 -11911-4 0  9997
2 51444  97.8881 348.9564 0001422  84.2782 275.8593 14.82152345236162
GAOFEN-12 03            
1 52912U 22069A   26165.28115372  .00000616  00000+0  88025-4 0  9996
2 52912  97.8291  53.2252 0001928 104.5058 255.6368 14.80030071214184
SWOT                    
1 54754U 22173A   26165.20153638  .00000071  00000+0  49883-4 0  9991
2 54754  77.6108  39.3407 0000246  95.2262 264.8918 14.00169286178731
GAOFEN-12 04            
1 57654U 23123A   26165.29821615  .00000898  00000+0  12496-3 0  9991
2 57654  97.9127  83.3574 0001789  84.3862 275.7554 14.80223754152201
PARS 1                  
1 59065U 24039Q   26165.27183859  .00010407  00000+0  21716-3 0  9997
2 59065  97.4815 146.0997 0011344 120.4915 239.7456 15.45670103128191
RESURS-P 4              
1 59371U 24061A   26165.32415874  .00002856  00000+0  94574-4 0  9995
2 59371  97.2753 113.2728 0001951 129.6396 230.5019 15.32116471123328
LEGION 1                
1 59625U 24081A   26165.25807184  .00003399  00000+0  17702-3 0  9990
2 59625  97.5022 243.1460 0009814  27.7148 332.4606 15.16648942117093
LEGION 2                
1 59626U 24081B   26165.22203462  .00003935  00000+0  20443-3 0  9999
2 59626  97.5023 243.2079 0011052 354.5365   5.5746 15.16628224117095
ALOS-4 (DAICHI-4)       
1 60182U 24123A   26165.25030230  .00001346  00000+0  18714-3 0  9991
2 60182  97.9244 262.4652 0001581  97.9334 262.2057 14.79470806105445
LEGION 3                
1 60452U 24146A   26165.09985569  .00003595  00000+0  19730-3 0  9999
2 60452  45.0025  47.1126 0007291 152.0320 208.0952 15.16018448101554
LEGION 4                
1 60453U 24146B   26165.23470983  .00003294  00000+0  18178-3 0  9996
2 60453  44.9996 138.2995 0014009 292.9386  67.0014 15.16009855100426
SENTINEL-2C             
1 60989U 24157A   26165.16555197  .00000089  00000+0  50695-4 0  9995
2 60989  98.5692 239.9902 0001068  80.2378 279.8926 14.30817015 92554
IONOSFERA-M 1           
1 61735U 24199A   26165.24010243  .00000056  00000+0  44620-4 0  9993
2 61735  98.7177  38.4434 0001870 114.2081 245.9293 14.22753775127289
